# Made by eph2tle, compiled Jul 16 2020 18:47:12
# Run at Tue Jul 21 21:11:52 2020
#
# No updates (interplanetary,  not to be seen again)
#
#    The following TLEs (Two-Line Elements) were generated by fitting
# a numerically-integrated ephemeris,  based on the orbit given below,
# to the SDP4/SGP4 models.  Each TLE is good for the interval between
# its epoch and the epoch of the subsequent TLE (usually one day).
# The maximum deviation between the numerically integrated ephemerides
# and the TLE-based ephemeris, in kilometers,  is given for each TLE
# as the "worst residual".
#
#    This fitting is done using the 'eph2tle' code packaged with Find_Orb.
# The code has details on how the TLEs were computed :
#
#    https://github.com/Bill-Gray/find_orb/eph2tle.cpp
#
#    Be warned:  the error given is that between the numerically
# integrated ephems and the TLE model.  There will usually be at
# least some additional difference between the ephems and the actual
# motion of the satellite,  especially if the ephemerides are based
# on a short arc.  If the following orbital elements say something
# like "[based on] 10 observations 2015 Jan. 1-13",  and the TLEs
# are for 2015 May,  the extrapolation may be tenuous at best.  If
# your application requires a specific level of accuracy,  you may
# want to contact me;  I can give you some idea as to the fit of the
# underlying data (and possibly TLEs based on newer data).
#
#   You can usually find the underlying observational data,  and the
# fitted orbit,  residuals,  ephemerides,  and sometimes some comments
# about the object,  among the pages listed at
#
#    https://www.projectpluto.com/pluto/mpecs/pseudo.htm
#
#    WARNING:  for this object,  "normal" TLEs cannot be fitted.  (This
# usually means an object with an hyperbolic or nearly-parabolic orbit.)
# For this and similar cases,   an alternative model is used,  in which
# most of the traditional TLE data is replaced by six signed 8-digit hex
# numbers.  These six numbers are a state vector,  numerically integrated
# using a simplified force model.  This is necessary for objects at L2 or
# L1,  and sometimes for objects in high orbits where the SDP4/SGP4 model
# fails.  I'll be posting source code for this.  But be aware:  it's my
# own extension,  doesn't work with other code,  and is therefore used
# only when necessary.
#
#    Also,  if you use a TLE outside the "correct" time range (between
# its MJD and that of the next TLE),  all bets are off.  I've carefully
# computed and minimized the worst error over the "correct" time frame,
# but the ephemeris may (or may not) diverge wildly outside of it.
#
# Ephem range: 59050.000000 59090.000000 1.000000
# Created Tue Jul 21 21:11:43 2020
# Ephemeris start: 20 Jul 2020  0:00:00
# Ephemeris end:   29 Aug 2020  0:00:00
# Times are all TDT
# Positions/velocities are in equatorial J2000
# Orbital elements:  2020-047B = NORAD 45919 = EMM (Hope) booster
#    Perigee 2020 Jul 19.9538775 +/- 3.64e-5 TT = 22:53:35.01 (JD 2459050.4538775)
# Epoch 2020 Jul 20.0 TT = JDT 2459050.5                        Find_Orb
# q  6308.9572706 +/- 1.68            (J2000 equator)
# H   26.2  G 0.15                    Peri.  282.8128844 +/- 0.0049
#                                     Node   309.0809853 +/- 0.0029
# e   1.210330995 +/- 9.6e-5          Incl.   30.2071664 +/- 0.0006
# 36 of 111 observations 2020 July 20-22 (39.8 hr); mean residual 0".252
# LAUNCH at  19 Jul 2020 22:54:44.32 lat -26.69697 lon W31.41840
#
# 1 NoradU COSPAR   Epoch.epoch     dn/dt/2  d2n/dt2/6 BSTAR    T El# C
# 2 NoradU Inclina RAAscNode Eccent  ArgPeri MeanAno  MeanMotion Rev# C

# Worst residual: 2.85 km
# MJD 59050.000000 (2020 Jul 20  0:00)
2020-047B = NORAD 45919 = EMM (Hope) booster
1 45919U 20047B   20201.99919926 +000FQXZQ -0004MXMA +0005EY54H  9346
2 45919                          +000XPJWB +0004KAEI +000GXZLW     04

# Worst residual: 5.44 km
# MJD 59051.000000 (2020 Jul 21  0:00)
2020-047B = NORAD 45919 = EMM (Hope) booster
1 45919U 20047B   20202.99919926 +005OQ84Z +0016I3FR +0030CX4FH  9342
2 45919                          +000JVMR9 +00058HVM +000AXG96     07

# Worst residual: 4.27 km
# MJD 59052.000000 (2020 Jul 22  0:00)
2020-047B = NORAD 45919 = EMM (Hope) booster
1 45919U 20047B   20203.99919926 +00ADA0ZE +002EZBCX +005L11VTH  9348
2 45919                          +000J9FRA +0005314I +000AL4TZ     06

# Worst residual: 0.75 km
# MJD 59053.000000 (2020 Jul 23  0:00)
2020-047B = NORAD 45919 = EMM (Hope) booster
1 45919U 20047B   20204.99919926 +00EYL3PF +003MKGRC +0083TUPYH  9347
2 45919                          +000J15GA +00050F88 +000AG2C1     00

# Worst residual: 0.70 km
# MJD 59054.000000 (2020 Jul 24  0:00)
2020-047B = NORAD 45919 = EMM (Hope) booster
1 45919U 20047B   20205.99919926 +00JIG7PA +004TNJ3O +00ALP1FKH  9346
2 45919                          +000IWROY +0004YPIM +000AD0LA     04

# Worst residual: 0.82 km
# MJD 59055.000000 (2020 Jul 25  0:00)
2020-047B = NORAD 45919 = EMM (Hope) booster
1 45919U 20047B   20206.99919926 +00O1HAZ4 +0060DPGY +00D2XVY7H  9342
2 45919                          +000ITZV3 +0004XE4J +000AASAI     01

# Worst residual: 1.01 km
# MJD 59056.000000 (2020 Jul 26  0:00)
2020-047B = NORAD 45919 = EMM (Hope) booster
1 45919U 20047B   20207.99919926 +00SJY5X0 +0076THJ6 +00FJPBUPH  9347
2 45919                          +000IRZX8 +0004WA1M +000A8XW5     06

# Worst residual: 1.21 km
# MJD 59057.000000 (2020 Jul 27  0:00)
2020-047B = NORAD 45919 = EMM (Hope) booster
1 45919U 20047B   20208.99919926 +00X1ZMM7 +008D04TI +00I01R06H  9341
2 45919                          +000IQDYC +0004V9HF +000A7A9N     09

# Worst residual: 1.39 km
# MJD 59058.000000 (2020 Jul 28  0:00)
2020-047B = NORAD 45919 = EMM (Hope) booster
1 45919U 20047B   20209.99919926 +011JO2KC +009IY5PB +00KG09L8H  9340
2 45919                          +000IOYIF +0004U9RF +000A5PI7     05

# Worst residual: 1.53 km
# MJD 59059.000000 (2020 Jul 29  0:00)
2020-047B = NORAD 45919 = EMM (Hope) booster
1 45919U 20047B   20210.99919926 +01610I0L +00AONHG5 +00MVL8V1H  9349
2 45919                          +000INLBH +0004T8LX +000A453T     04

# Worst residual: 1.63 km
# MJD 59060.000000 (2020 Jul 30  0:00)
2020-047B = NORAD 45919 = EMM (Hope) booster
1 45919U 20047B   20211.99919926 +01AI14RP +00BU3IL6 +00PASJSRH  9343
2 45919                          +000IM7X6 +0004S3XU +000A2J9F     01

# Worst residual: 1.68 km
# MJD 59061.000000 (2020 Jul 31  0:00)
2020-047B = NORAD 45919 = EMM (Hope) booster
1 45919U 20047B   20212.99919926 +01EYPQXX +00CZ9662 +00RPLNJ5H  9348
2 45919                          +000IKT2J +0004QTSI +000A0UJK     06

# Worst residual: 1.70 km
# MJD 59062.000000 (2020 Aug  1  0:00)
2020-047B = NORAD 45919 = EMM (Hope) booster
1 45919U 20047B   20213.99919926 +01JF1XTC +00E42WVM +00U3ZPXKH  9341
2 45919                          +000IJCE4 +0004PCCG +0009Z1RB     08

# Worst residual: 1.75 km
# MJD 59063.000000 (2020 Aug  2  0:00)
2020-047B = NORAD 45919 = EMM (Hope) booster
1 45919U 20047B   20214.99919926 +01NV1AFV +00F8ISH4 +00WHXNE4H  9349
2 45919                          +000IHU6G +0004NLZ3 +0009X3WD     05

# Worst residual: 1.85 km
# MJD 59064.000000 (2020 Aug  3  0:00)
2020-047B = NORAD 45919 = EMM (Hope) booster
1 45919U 20047B   20215.99919926 +01SANIPK +00GCIHOA +00YVE4AZH  9347
2 45919                          +000IGB8F +0004LLAL +0009V04D     05

# Worst residual: 2.03 km
# MJD 59065.000000 (2020 Aug  4  0:00)
2020-047B = NORAD 45919 = EMM (Hope) booster
1 45919U 20047B   20216.99919926 +01WPWL5E +00HFZEFP +0118BMGUH  9349
2 45919                          +000IESQA +0004J97D +0009SPQQ     09

# Worst residual: 2.27 km
# MJD 59066.000000 (2020 Aug  5  0:00)
2020-047B = NORAD 45919 = EMM (Hope) booster
1 45919U 20047B   20217.99919926 +0214SRK9 +00IIUOJ1 +013KOIH4H  9349
2 45919                          +000IDC31 +0004GKWQ +0009Q88M     03

# Worst residual: 2.53 km
# MJD 59067.000000 (2020 Aug  6  0:00)
2020-047B = NORAD 45919 = EMM (Hope) booster
1 45919U 20047B   20218.99919926 +025JCOMA +00JL1C3R +015WF12LH  9345
2 45919                          +000IBYUA +0004DJWG +0009NJ8P     01

# Worst residual: 2.77 km
# MJD 59068.000000 (2020 Aug  7  0:00)
2020-047B = NORAD 45919 = EMM (Hope) booster
1 45919U 20047B   20219.99919926 +029XLCKY +00KMGA3A +0187HCEDH  9346
2 45919                          +000IAQL9 +0004A5XN +0009KMIK     07

# Worst residual: 2.95 km
# MJD 59069.000000 (2020 Aug  8  0:00)
2020-047B = NORAD 45919 = EMM (Hope) booster
1 45919U 20047B   20220.99919926 +02EBK5E8 +00LN0E8F +01AHTL3FH  9345
2 45919                          +000I9OWI +00046EZ2 +0009HHXX     00

# Worst residual: 3.07 km
# MJD 59070.000000 (2020 Aug  9  0:00)
2020-047B = NORAD 45919 = EMM (Hope) booster
1 45919U 20047B   20221.99919926 +02IPAUE7 +00MMMKQK +01CRDV6WH  9345
2 45919                          +000I8VAY +00042B5H +0009E5HV     03

# Worst residual: 3.17 km
# MJD 59071.000000 (2020 Aug 10  0:00)
2020-047B = NORAD 45919 = EMM (Hope) booster
1 45919U 20047B   20222.99919926 +02N2VJVS +00NL7RJB +01F04AU8H  9344
2 45919                          +000I8B9R +0003XUQE +0009AL88     05

# Worst residual: 3.30 km
# MJD 59072.000000 (2020 Aug 11  0:00)
2020-047B = NORAD 45919 = EMM (Hope) booster
1 45919U 20047B   20223.99919926 +02RGCQQ7 +00OIOZBB +01H7Z0W0H  9348
2 45919                          +000I828L +0003T234 +00096T8X     03

# Worst residual: 3.52 km
# MJD 59073.000000 (2020 Aug 12  0:00)
2020-047B = NORAD 45919 = EMM (Hope) booster
1 45919U 20047B   20224.99919926 +02VTT82Z +00PEZCEH +01JEW7DSH  9342
2 45919                          +000I85M8 +0003NXOS +00092TPY     05

# Worst residual: 3.84 km
# MJD 59074.000000 (2020 Aug 13  0:00)
2020-047B = NORAD 45919 = EMM (Hope) booster
1 45919U 20047B   20225.99919926 +0307C58Q +00QA03QA +01LKU21MH  9343
2 45919                          +000I8MT3 +0003II4P +0008YMVF     06

